{"type": "FeatureCollection", "features": [ {"type": "Feature", "properties": {"norad_id": 34909, "name": "COSMOS 2251 DEB", "group": "cosmos-2251-debris", "lat": 45.28186937477689, "lon": 91.19678240454891, "alt_km": 688.2541855151276, "timestamp": "2025-12-13T20:38:51.403332+00:00", "meta": {"OBJECT_NAME": "COSMOS 2251 DEB", "OBJECT_ID": "1993-036ADE", "EPOCH": "2025-12-13T05:48:25.767360", "MEAN_MOTION": 14.77844835, "ECCENTRICITY": 0.00844839, "INCLINATION": 74.0142, "RA_OF_ASC_NODE": 75.5836, "ARG_OF_PERICENTER": 211.3261, "MEAN_ANOMALY": 148.2867, "EPHEMERIS_TYPE": 0, "CLASSIFICATION_TYPE": "U", "NORAD_CAT_ID": 34909, "ELEMENT_SET_NO": 999, "REV_AT_EPOCH": 66859, "BSTAR": 0.00095563308, "MEAN_MOTION_DOT": 7.263e-05, "MEAN_MOTION_DDOT": 0}, "tle": {"line1": "1 34909U 93036ADE 25347.24196490  .00007263  00000+0  95563-3 0  9990", "line2": "2 34909  74.0142  75.5836 0084483 211.3261 148.2867 14.77844835668593"}}, "geometry": {"type": "Point", "coordinates": [91.19678240454891, 45.28186937477689]}}, {"type": "Feature", "properties": {"norad_id": 34910, "name": "COSMOS 2251 DEB", "group": "cosmos-2251-debris", "lat": 23.289458388261874, "lon": -87.48979183835188, "alt_km": 943.4298766380971, "timestamp": "2025-12-13T20:38:51.403343+00:00", "meta": {"OBJECT_NAME": "COSMOS 2251 DEB", "OBJECT_ID": "1993-036ADF", "EPOCH": "2025-12-04T03:27:09.174816", "MEAN_MOTION": 13.3765034, "ECCENTRICITY": 0.04679235, "INCLINATION": 73.8763, "RA_OF_ASC_NODE": 114.9889, "ARG_OF_PERICENTER": 235.2756, "MEAN_ANOMALY": 311.3517, "EPHEMERIS_TYPE": 0, "CLASSIFICATION_TYPE": "U", "NORAD_CAT_ID": 34910, "ELEMENT_SET_NO": 999, "REV_AT_EPOCH": 81409, "BSTAR": 0.0018660381, "MEAN_MOTION_DOT": 1.821e-05, "MEAN_MOTION_DDOT": 0}, "tle": {"line1": "1 34910U 93036ADF 25338.14385619  .00001821  00000+0  18660-2 0  9990", "line2": "2 34910  73.8763 114.9889 0467923 235.2756 311.3517 13.37650340814099"}}, "geometry": {"type": "Point", "coordinates": [-87.48979183835188, 23.289458388261874]}}, {"type": "Feature", "properties": {"norad_id": 34911, "name": "COSMOS 2251 DEB", "group": "cosmos-2251-debris", "lat": 64.7789858162343, "lon": -79.97889816240632, "alt_km": 660.8727950952352, "timestamp": "2025-12-13T20:38:51.403353+00:00", "meta": {"OBJECT_NAME": "COSMOS 2251 DEB", "OBJECT_ID": "1993-036ADG", "EPOCH": "2025-12-12T03:54:43.347744", "MEAN_MOTION": 14.59370675, "ECCENTRICITY": 0.00835656, "INCLINATION": 74.0412, "RA_OF_ASC_NODE": 245.8432, "ARG_OF_PERICENTER": 11.3776, "MEAN_ANOMALY": 144.4363, "EPHEMERIS_TYPE": 0, "CLASSIFICATION_TYPE": "U", "NORAD_CAT_ID": 34911, "ELEMENT_SET_NO": 999, "REV_AT_EPOCH": 88578, "BSTAR": 0.00025463849, "MEAN_MOTION_DOT": 1.233e-05, "MEAN_MOTION_DDOT": 0}, "tle": {"line1": "1 34911U 93036ADG 25346.16300171  .00001233  00000+0  25464-3 0  9990", "line2": "2 34911  74.0412 245.8432 0083565  11.3776 144.4363 14.59370675885786"}}, "geometry": {"type": "Point", "coordinates": [-79.97889816240632, 64.7789858162343]}}, {"type": "Feature", "properties": {"norad_id": 34913, "name": "COSMOS 2251 DEB", "group": "cosmos-2251-debris", "lat": -26.43794596219316, "lon": -87.74072354746085, "alt_km": 773.8499295216043, "timestamp": "2025-12-13T20:38:51.403363+00:00", "meta": {"OBJECT_NAME": "COSMOS 2251 DEB", "OBJECT_ID": "1993-036ADJ", "EPOCH": "2025-12-10T13:00:18.152064", "MEAN_MOTION": 14.346364, "ECCENTRICITY": 0.0020264, "INCLINATION": 74.0283, "RA_OF_ASC_NODE": 286.5252, "ARG_OF_PERICENTER": 37.1811, "MEAN_ANOMALY": 83.6827, "EPHEMERIS_TYPE": 0, "CLASSIFICATION_TYPE": "U", "NORAD_CAT_ID": 34913, "ELEMENT_SET_NO": 999, "REV_AT_EPOCH": 65156, "BSTAR": 9.4175e-05, "MEAN_MOTION_DOT": 2.41e-06, "MEAN_MOTION_DDOT": 0}, "tle": {"line1": "1 34913U 93036ADJ 25344.54187676  .00000241  00000+0  94175-4 0  9999", "line2": "2 34913  74.0283 286.5252 0020264  37.1811  83.6827 14.34636400651569"}}, "geometry": {"type": "Point", "coordinates": [-87.74072354746085, -26.43794596219316]}}, {"type": "Feature", "properties": {"norad_id": 34918, "name": "COSMOS 2251 DEB", "group": "cosmos-2251-debris", "lat": -43.740737261888995, "lon": 147.35274363626883, "alt_km": 680.9732122204978, "timestamp": "2025-12-13T20:38:51.403386+00:00", "meta": {"OBJECT_NAME": "COSMOS 2251 DEB", "OBJECT_ID": "1993-036ADP", "EPOCH": "2025-12-10T06:27:09.237024", "MEAN_MOTION": 14.6111897, "ECCENTRICITY": 0.0033898, "INCLINATION": 74.0712, "RA_OF_ASC_NODE": 318.3402, "ARG_OF_PERICENTER": 286.4186, "MEAN_ANOMALY": 135.6409, "EPHEMERIS_TYPE": 0, "CLASSIFICATION_TYPE": "U", "NORAD_CAT_ID": 34918, "ELEMENT_SET_NO": 999, "REV_AT_EPOCH": 65300, "BSTAR": 0.0032517, "MEAN_MOTION_DOT": 0.00016131, "MEAN_MOTION_DDOT": 0}, "tle": {"line1": "1 34918U 93036ADP 25344.26885691  .00016131  00000+0  32517-2 0  9990", "line2": "2 34918  74.0712 318.3402 0033898 286.4186 135.6409 14.61118970653005"}}, "geometry": {"type": "Point", "coordinates": [147.35274363626883, -43.740737261888995]}}, {"type": "Feature", "properties": {"norad_id": 34924, "name": "COSMOS 2251 DEB", "group": "cosmos-2251-debris", "lat": -36.41818394575985, "lon": -80.50103933763697, "alt_km": 672.4106580610905, "timestamp": "2025-12-13T20:38:51.403399+00:00", "meta": {"OBJECT_NAME": "COSMOS 2251 DEB", "OBJECT_ID": "1993-036ADV", "EPOCH": "2025-12-13T08:24:22.768992", "MEAN_MOTION": 14.60045995, "ECCENTRICITY": 0.00543271, "INCLINATION": 74.0402, "RA_OF_ASC_NODE": 88.2833, "ARG_OF_PERICENTER": 172.6798, "MEAN_ANOMALY": 245.0757, "EPHEMERIS_TYPE": 0, "CLASSIFICATION_TYPE": "U", "NORAD_CAT_ID": 34924, "ELEMENT_SET_NO": 999, "REV_AT_EPOCH": 87732, "BSTAR": 0.0016529622, "MEAN_MOTION_DOT": 8.086e-05, "MEAN_MOTION_DDOT": 0}, "tle": {"line1": "1 34924U 93036ADV 25347.35026353  .00008086  00000+0  16530-2 0  9999", "line2": "2 34924  74.0402  88.2833 0054327 172.6798 245.0757 14.60045995877324"}}, "geometry": {"type": "Point", "coordinates": [-80.50103933763697, -36.41818394575985]}}, {"type": "Feature", "properties": {"norad_id": 34944, "name": "COSMOS 2251 DEB", "group": "cosmos-2251-debris", "lat": 37.542906042769516, "lon": 37.06753975068852, "alt_km": 767.1247501013959, "timestamp": "2025-12-13T20:38:51.403410+00:00", "meta": {"OBJECT_NAME": "COSMOS 2251 DEB", "OBJECT_ID": "1993-036ADX", "EPOCH": "2025-12-07T09:30:46.029312", "MEAN_MOTION": 14.14167925, "ECCENTRICITY": 0.02195348, "INCLINATION": 73.7495, "RA_OF_ASC_NODE": 241.6775, "ARG_OF_PERICENTER": 90.2413, "MEAN_ANOMALY": 272.3884, "EPHEMERIS_TYPE": 0, "CLASSIFICATION_TYPE": "U", "NORAD_CAT_ID": 34944, "ELEMENT_SET_NO": 999, "REV_AT_EPOCH": 64007, "BSTAR": 0.00099492053, "MEAN_MOTION_DOT": 2.364e-05, "MEAN_MOTION_DDOT": 0}, "tle": {"line1": "1 34944U 93036ADX 25341.39636608  .00002364  00000+0  99492-3 0  9991", "line2": "2 34944  73.7495 241.6775 0219534  90.2413 272.3884 14.14167925640077"}}, "geometry": {"type": "Point", "coordinates": [37.06753975068852, 37.542906042769516]}}, {"type": "Feature", "properties": {"norad_id": 34946, "name": "COSMOS 2251 DEB", "group": "cosmos-2251-debris", "lat": 64.30973859454372, "lon": 16.51973462291199, "alt_km": 656.660864971589, "timestamp": "2025-12-13T20:38:51.403420+00:00", "meta": {"OBJECT_NAME": "COSMOS 2251 DEB", "OBJECT_ID": "1993-036ADZ", "EPOCH": "2025-12-11T09:12:32.820480", "MEAN_MOTION": 14.61985522, "ECCENTRICITY": 0.0048688, "INCLINATION": 74.0237, "RA_OF_ASC_NODE": 344.7115, "ARG_OF_PERICENTER": 122.3418, "MEAN_ANOMALY": 238.2476, "EPHEMERIS_TYPE": 0, "CLASSIFICATION_TYPE": "U", "NORAD_CAT_ID": 34946, "ELEMENT_SET_NO": 999, "REV_AT_EPOCH": 88189, "BSTAR": 0.00095647955, "MEAN_MOTION_DOT": 4.849e-05, "MEAN_MOTION_DDOT": 0}, "tle": {"line1": "1 34946U 93036ADZ 25345.38371320  .00004849  00000+0  95648-3 0  9992", "line2": "2 34946  74.0237 344.7115 0048688 122.3418 238.2476 14.61985522881890"}}, "geometry": {"type": "Point", "coordinates": [16.51973462291199, 64.30973859454372]}}, {"type": "Feature", "properties": {"norad_id": 34949, "name": "COSMOS 2251 DEB", "group": "cosmos-2251-debris", "lat": 16.201329741057766, "lon": 112.24781660129125, "alt_km": 680.397090440988, "timestamp": "2025-12-13T20:38:51.403431+00:00", "meta": {"OBJECT_NAME": "COSMOS 2251 DEB", "OBJECT_ID": "1993-036AEC", "EPOCH": "2025-12-09T15:34:41.030400", "MEAN_MOTION": 14.73963573, "ECCENTRICITY": 0.008042, "INCLINATION": 74.0182, "RA_OF_ASC_NODE": 115.6941, "ARG_OF_PERICENTER": 261.6413, "MEAN_ANOMALY": 97.5637, "EPHEMERIS_TYPE": 0, "CLASSIFICATION_TYPE": "U", "NORAD_CAT_ID": 34949, "ELEMENT_SET_NO": 999, "REV_AT_EPOCH": 88316, "BSTAR": 0.00087029, "MEAN_MOTION_DOT": 5.989e-05, "MEAN_MOTION_DDOT": 0}, "tle": {"line1": "1 34949U 93036AEC 25343.64908600  .00005989  00000+0  87029-3 0  9999", "line2": "2 34949  74.0182 115.6941 0080420 261.6413  97.5637 14.73963573883168"}}, "geometry": {"type": "Point", "coordinates": [112.24781660129125, 16.201329741057766]}}, {"type": "Feature", "properties": {"norad_id": 34953, "name": "COSMOS 2251 DEB", "group": "cosmos-2251-debris", "lat": -28.18375094767558, "lon": 16.538901700004917, "alt_km": 641.4858021435275, "timestamp": "2025-12-13T20:38:51.403441+00:00", "meta": {"OBJECT_NAME": "COSMOS 2251 DEB", "OBJECT_ID": "1993-036AEG", "EPOCH": "2025-12-13T04:43:54.602400", "MEAN_MOTION": 14.68966992, "ECCENTRICITY": 0.00580524, "INCLINATION": 74.0934, "RA_OF_ASC_NODE": 26.607, "ARG_OF_PERICENTER": 18.505, "MEAN_ANOMALY": 47.1534, "EPHEMERIS_TYPE": 0, "CLASSIFICATION_TYPE": "U", "NORAD_CAT_ID": 34953, "ELEMENT_SET_NO": 999, "REV_AT_EPOCH": 88135, "BSTAR": 0.001142267, "MEAN_MOTION_DOT": 6.84e-05, "MEAN_MOTION_DDOT": 0}, "tle": {"line1": "1 34953U 93036AEG 25347.19715975  .00006840  00000+0  11423-2 0  9990", "line2": "2 34953  74.0934  26.6070 0058052  18.5050  47.1534 14.68966992881352"}}, "geometry": {"type": "Point", "coordinates": [16.538901700004917, -28.18375094767558]}}]}